NORAD_CAT_ID,OBJECT_NAME,OBJECT_TYPE,EPOCH,MEAN_MOTION,ECCENTRICITY,INCLINATION,RA_OF_ASC_NODE,ARG_OF_PERICENTER,MEAN_ANOMALY,BSTAR,MEAN_MOTION_DOT,MEAN_MOTION_DDOT,TLE_LINE0,TLE_LINE1,TLE_LINE2,SEMIMAJOR_AXIS,PERIOD,APOGEE,PERIGEE,DECAYED
53929.0,STARLINK-5018,PAYLOAD,2022-12-26 14:00:01,15.08852049,0.0001296999999999,53.2153,162.1427,92.2832,267.7012,-0.0015565,-0.00024982,0.0,0 STARLINK-5018,1 53929U 22119AV  22360.58334491 -.00024982  00000-0 -15565-2 0  9994,2 53929  53.2153 162.1427 0001297  92.2832 267.7012 15.08852049 14919,6917.844,95.437,540.606,538.811,0.0
53929.0,STARLINK-5018,PAYLOAD,2022-12-27 00:00:00,15.08846374,0.0001243,53.2152,160.273,80.7456,23.7377,0.00070066,0.00010883,0.0,0 STARLINK-5018,1 53929U 22119AV  22361.00001157  .00010883  00000-0  70066-3 0  9993,2 53929  53.2152 160.2730 0001243  80.7456  23.7377 15.08846374  1306,6917.861,95.437,540.586,538.866,0.0
53929.0,STARLINK-5018,PAYLOAD,2022-12-27 08:00:01,15.0883191,0.0001232,53.2155,158.7749,91.6865,24.4733,0.0030294,0.00048244,0.0,0 STARLINK-5018,1 53929U 22119AV  22361.33335648  .00048244  00000-0  30294-2 0  9994,2 53929  53.2155 158.7749 0001232  91.6865  24.4733 15.08831910 15022,6917.905,95.438,540.622,538.918,0.0
53929.0,STARLINK-5018,PAYLOAD,2022-12-27 14:00:01,15.0887577,0.0001311,53.2159,157.6537,87.7299,307.0631,-0.0013538,-0.0002179,0.0,0 STARLINK-5018,1 53929U 22119AV  22361.58334491 -.00021790  00000-0 -13538-2 0  9997,2 53929  53.2159 157.6537 0001311  87.7299 307.0631 15.08875770  1309,6917.771,95.435,540.543,538.729,0.0
53929.0,STARLINK-5018,PAYLOAD,2022-12-27 20:12:20,15.08848996,0.0001213,53.2167,156.4921,89.8413,270.2718,0.00015658,2.206e-05,0.0,0 STARLINK-5018,1 53929U 22119AV  22361.84190922  .00002206  00000-0  15658-3 0  9990,2 53929  53.2167 156.4921 0001213  89.8413 270.2718 15.08848996 15104,6917.853,95.437,540.557,538.879,0.0
53929.0,STARLINK-5018,PAYLOAD,2022-12-27 22:00:00,15.08862147,0.000131,53.2158,156.1584,77.5592,328.8669,-0.00059172,-9.698e-05,0.0,0 STARLINK-5018,1 53929U 22119AV  22361.91667824 -.00009698  00000-0 -59172-3 0  9991,2 53929  53.2158 156.1584 0001310  77.5592 328.8669 15.08862147  1302,6917.813,95.436,540.5840000000002,538.771,0.0
53929.0,STARLINK-5018,PAYLOAD,2022-12-28 00:00:00,15.08878595,0.0001317,53.2158,155.7838,78.3361,60.9914,-0.0035333,-0.00056141,0.0,0 STARLINK-5018,1 53929U 22119AV  22362.00001157 -.00056141  00000-0 -35333-2 0  9990,2 53929  53.2158 155.7838 0001317  78.3361  60.9914 15.08878595 15125,6917.762,95.435,540.538,538.716,0.0
53929.0,STARLINK-5018,PAYLOAD,2022-12-28 10:30:49,15.08845347,0.0001236,53.2165,153.816,89.24700000000001,270.8664,6.1734e-05,6.95e-06,0.0,0 STARLINK-5018,1 53929U 22119AV  22362.43807187  .00000695  00000-0  61734-4 0  9991,2 53929  53.2165 153.8160 0001236  89.2470 270.8664 15.08845347 15619,6917.864000000001,95.437,540.5840000000002,538.874,0.0
53929.0,STARLINK-5018,PAYLOAD,2022-12-28 13:41:36,15.088371,0.0001152,53.2168,153.2202,92.7851,267.3273,-3.8331e-06,-3.49e-06,0.0,0 STARLINK-5018,1 53929U 22119AV  22362.57055847 -.00000349  00000-0 -38331-5 0  9990,2 53929  53.2168 153.2202 0001152  92.7851 267.3273 15.08837100 15213,6917.889,95.438,540.5509999999998,538.957,0.0
53929.0,STARLINK-5018,PAYLOAD,2022-12-28 20:03:09,15.08835214,0.0001133,53.2168,152.0312,88.8367,271.2755,-5.7861e-05,-1.208e-05,0.0,0 STARLINK-5018,1 53929U 22119AV  22362.83552176 -.00001208  00000-0 -57861-4 0  9999,2 53929  53.2168 152.0312 0001133  88.8367 271.2755 15.08835214 15672,6917.895,95.438,540.544,538.976,0.0
53929.0,STARLINK-5018,PAYLOAD,2022-12-29 11:57:00,15.08834268,0.0001165,53.2165,149.0583,85.2658,274.8467,-0.00013565,-2.446e-05,0.0,0 STARLINK-5018,1 53929U 22119AV  22363.49792600 -.00002446  00000-0 -13565-3 0  9997,2 53929  53.2165 149.0583 0001165  85.2658 274.8467 15.08834268 15772,6917.898,95.438,540.569,538.957,0.0
53929.0,STARLINK-5018,PAYLOAD,2022-12-29 19:53:56,15.08836826,0.0001217,53.2168,147.5713,83.6864,276.4267,-0.00014915,-2.661e-05,0.0,0 STARLINK-5018,1 53929U 22119AV  22363.82912597 -.00002661  00000-0 -14915-3 0  9992,2 53929  53.2168 147.5713 0001217  83.6864 276.4267 15.08836826 15400,6917.89,95.438,540.597,538.913,0.0
53929.0,STARLINK-5018,PAYLOAD,2022-12-30 10:12:24,15.0883182,0.0001209,53.2169,144.895,80.4883,279.6246,4.9539e-05,5e-06,0.0,0 STARLINK-5018,1 53929U 22119AV  22364.42528205  .00000500  00000-0  49539-4 0  9997,2 53929  53.2169 144.8950 0001209  80.4883 279.6246 15.08831820 15918,6917.905,95.438,540.607,538.934,0.0
53929.0,STARLINK-5018,PAYLOAD,2022-12-30 13:23:10,15.08834491,0.0001229,53.2169,144.3004,80.4963,279.6168,7.1753e-05,8.54e-06,0.0,0 STARLINK-5018,1 53929U 22119AV  22364.55776025  .00000854  00000-0  71753-4 0  9991,2 53929  53.2169 144.3004 0001229  80.4963 279.6168 15.08834491 15510,6917.897,95.438,540.612,538.9119999999998,0.0
53929.0,STARLINK-5018,PAYLOAD,2022-12-30 18:09:19,15.088421900000002,0.0001264,53.2169,143.4086,80.737,279.3765,0.00013504,1.862e-05,0.0,0 STARLINK-5018,1 53929U 22119AV  22364.75647361  .00001862  00000-0  13504-3 0  9992,2 53929  53.2169 143.4086 0001264  80.7370 279.3765 15.08842190 15542,6917.874,95.437,540.613,538.864,0.0
53929.0,STARLINK-5018,PAYLOAD,2022-12-31 02:06:14,15.08850183,0.0001355,53.2179,141.9228,84.4809,275.6338,0.00017222,2.455e-05,0.0,0 STARLINK-5018,1 53929U 22119AV  22365.08766640  .00002455  00000-0  17222-3 0  9991,2 53929  53.2179 141.9228 0001355  84.4809 275.6338 15.08850183 15594,6917.849,95.437,540.6519999999998,538.7769999999998,0.0
53929.0,STARLINK-5018,PAYLOAD,2022-12-31 11:38:33,15.08843538,0.000143,53.2185,140.1395,88.7762,271.3394,0.00016938,2.409e-05,0.0,0 STARLINK-5018,1 53929U 22119AV  22365.48510893  .00002409  00000-0  16938-3 0  9994,2 53929  53.2185 140.1395 0001430  88.7762 271.3394 15.08843538 15654,6917.87,95.437,540.724,538.745,0.0
53929.0,STARLINK-5018,PAYLOAD,2022-12-31 18:00:06,15.08833069,0.0001476999999999,53.2185,138.9501,93.266,266.8501,6.8784e-05,8.07e-06,0.0,0 STARLINK-5018,1 53929U 22119AV  22365.75007862  .00000807  00000-0  68784-4 0  9998,2 53929  53.2185 138.9501 0001477  93.2660 266.8501 15.08833069 15698,6917.901999999999,95.438,540.788,538.745,0.0
53929.0,STARLINK-5018,PAYLOAD,2023-01-01 09:53:59,15.08830154,0.0001378,53.2182,135.9756,86.1912,273.9237,-0.00014544,-2.601e-05,0.0,0 STARLINK-5018,1 53929U 22119AV  23001.41248927 -.00002601  00000-0 -14544-3 0  9998,2 53929  53.2182 135.9756 0001378  86.1912 273.9237 15.08830154 15793,6917.91,95.438,540.729,538.822,0.0
53929.0,STARLINK-5018,PAYLOAD,2023-01-01 16:15:31,15.08828085,0.0001661,53.2206,134.7874,94.6281,265.4901,-0.00015438,-2.743e-05,0.0,0 STARLINK-5018,1 53929U 22119AV  23001.67745283 -.00002743  00000-0 -15438-3 0  9993,2 53929  53.2206 134.7874 0001661  94.6281 265.4901 15.08828085 16252,6917.917,95.438,540.931,538.633,0.0
53929.0,STARLINK-5018,PAYLOAD,2023-01-02 01:47:50,15.08839209,0.000148,53.2184,133.0023,83.3946,276.7215,-0.00012754,-2.317e-05,0.0,0 STARLINK-5018,1 53929U 22119AV  23002.07488560 -.00002317  00000-0 -12754-3 0  9995,2 53929  53.2184 133.0023 0001480  83.3946 276.7215 15.08839209 15899,6917.8830000000025,95.438,540.7719999999998,538.724,0.0
53929.0,STARLINK-5018,PAYLOAD,2023-01-02 14:30:54,15.08848229,0.0001574,53.2189,130.6237,83.5558,276.5613,-3.9736e-08,-2.89e-06,0.0,0 STARLINK-5018,1 53929U 22119AV  23002.60479458 -.00000289  00000-0 -39736-7 0  9999,2 53929  53.2189 130.6237 0001574  83.5558 276.5613 15.08848229 15970,6917.855,95.437,540.809,538.631,0.0
53929.0,STARLINK-5018,PAYLOAD,2023-01-02 17:41:40,15.08850308,0.0001621999999999,53.2188,130.0287,84.4358,275.6819,8.1913e-06,-1.58e-06,0.0,0 STARLINK-5018,1 53929U 22119AV  23002.73727246 -.00000158  00000-0  81913-5 0  9990,2 53929  53.2188 130.0287 0001622  84.4358 275.6819 15.08850308 16419,6917.849,95.437,540.836,538.592,0.0
53929.0,STARLINK-5018,PAYLOAD,2023-01-03 01:38:36,15.08838425,0.0001457,53.2173,128.5407,78.3865,281.7291,3.2412e-05,2.28e-06,0.0,0 STARLINK-5018,1 53929U 22119AV  23003.06847846  .00000228  00000-0  32412-4 0  9992,2 53929  53.2173 128.5407 0001457  78.3865 281.7291 15.08838425 16047,6917.885,95.438,540.758,538.742,0.0
53929.0,STARLINK-5018,PAYLOAD,2023-01-03 08:00:09,15.08831253,0.0001556,53.2172,127.3509,82.0755,278.0414,0.00011159,1.488e-05,0.0,0 STARLINK-5018,1 53929U 22119AV  23003.33344066  .00001488  00000-0  11159-3 0  9991,2 53929  53.2172 127.3509 0001556  82.0755 278.0414 15.08831253 16505,6917.906999999997,95.438,540.849,538.696,0.0
53929.0,STARLINK-5018,PAYLOAD,2023-01-03 14:21:42,15.08828864,0.0001538,53.2173,126.1617,81.1893,278.9274,8.3132e-05,1.035e-05,0.0,0 STARLINK-5018,1 53929U 22119AV  23003.59840451  .00001035  00000-0  83132-4 0  9997,2 53929  53.2173 126.1617 0001538  81.1893 278.9274 15.08828864 16121,6917.9140000000025,95.438,540.8430000000002,538.715,0.0
53929.0,STARLINK-5018,PAYLOAD,2023-01-04 14:12:28,15.08841105,0.0001607,53.2191,121.7027,78.0402,282.077,3.5043e-05,2.7000000000000004e-06,0.0,0 STARLINK-5018,1 53929U 22119AV  23004.59199997  .00000270  00000-0  35043-4 0  9998,2 53929  53.2191 121.7027 0001607  78.0402 282.0770 15.08841105 16271,6917.877,95.437,540.854,538.63,0.0
53929.0,STARLINK-5018,PAYLOAD,2023-01-05 14:03:14,15.08855665,0.0001193999999999,53.2175,117.2415,71.1596,288.9525,8.169e-05,1.013e-05,0.0,0 STARLINK-5018,1 53929U 22119AV  23005.58558107  .00001013  00000-0  81690-4 0  9995,2 53929  53.2175 117.2415 0001194  71.1596 288.9525 15.08855665 16429,6917.833000000001,95.437,540.523,538.872,0.0
53929.0,STARLINK-5018,PAYLOAD,2023-01-05 17:14:00,15.0885162,0.0001217999999999,53.2176,116.6469,68.22,291.8922,0.00012887,1.764e-05,0.0,0 STARLINK-5018,1 53929U 22119AV  23005.71806135  .00001764  00000-0  12887-3 0  9991,2 53929  53.2176 116.6469 0001218  68.2200 291.8922 15.08851620 16867,6917.845,95.437,540.552,538.867,0.0
